#aV2006 12 11  0  0   .00000000      96 DD+AD WGS84 FIT  NGA
## 1405  86400.00000000   900.00000000 54080  .0000000000000
+   30     1  2  3  4  5  6  7  8  9 10 11 12 13 14 16 17 18
+         19 20 21 22 23 24 25 26 27 28 29 30 31  0  0  0  0
+          0  0  0  0  0  0  0  0  0  0  0  0  0  0  0  0  0
+          0  0  0  0  0  0  0  0  0  0  0  0  0  0  0  0  0
+          0  0  0  0  0  0  0  0  0  0  0  0  0  0  0  0  0
++         0  0  0  0  0  0  0  0  0  0  0  0  0  0  0  0  0
++         0  0  0  0  0  0  0  0  0  0  0  0  0  0  0  0  0
++         0  0  0  0  0  0  0  0  0  0  0  0  0  0  0  0  0
++         0  0  0  0  0  0  0  0  0  0  0  0  0  0  0  0  0
++         0  0  0  0  0  0  0  0  0  0  0  0  0  0  0  0  0
%c cc cc ccc ccc cccc cccc cccc cccc ccccc ccccc ccccc ccccc
%c cc cc ccc ccc cccc cccc cccc cccc ccccc ccccc ccccc ccccc
%f  0.0000000  0.000000000  0.00000000000  0.000000000000000
%f  0.0000000  0.000000000  0.00000000000  0.000000000000000
%i    0    0    0    0      0      0      0      0         0
%i    0    0    0    0      0      0      0      0         0
/*      NGA, ST. LOUIS,MO.                                  
/*   EPHEMERIS COMPUTED FROM  3 DAYS OF DATA                
/* CCCCCCCCCCCCCCCCCCCCCCCCCCCCCCCCCCCCCCCCCCCCCCCCCCCCCCCCC
/* CCCCCCCCCCCCCCCCCCCCCCCCCCCCCCCCCCCCCCCCCCCCCCCCCCCCCCCCC
*  2006 12 11 12 30   .00000000                                                 
P  1  14551.566714 -19305.259766 -10718.704559     94.810716                    
V  1  -3103.394598  13671.991035 -28351.506696       .020478                    
P  2 -19594.738300  13087.930174  11778.720015     62.920904                    
V  2 -15703.593364    540.437641 -26439.895820       .035532                    
P  3  11116.681593 -22410.474744   8226.024206    456.112904                    
V  3   1566.965719  11441.866302  28701.362595       .220397                    
P  4 -26240.417165   5252.909280   -185.979769    345.214929                    
V  4   -419.244381  -2890.131785 -31226.791721       .034923                    
P  5  10181.837274  21509.965237 -12182.820246    420.587095                    
V  5 -12954.573411  -8232.421698 -25696.225382       .214002                    
P  6   9849.517564  16286.621409  18689.004320    514.902384                    
V  6  -7997.932229  22132.646673 -15278.090262      -.174491                    
P  7  15040.887355   5418.560898  21541.387653    476.211127                    
V  7  -6695.337435  25815.030826  -1921.682779      -.091033                    
P  8 -24998.412481  -1964.328671   9263.380489    -89.132682                    
V  8  11303.760057  -3827.306819  28858.262024      -.014501                    
P  9  -1106.355481  15922.169292 -21775.364160     48.359397                    
V  9 -25612.241524   6126.194346   6177.215577       .016360                    
P 10  -7348.617045  13760.338591  21351.439868     94.228628                    
V 10 -18526.914934 -20151.703334   6889.918931       .005769                    
P 11  -2799.554462 -16622.952735 -20588.476687      -.785780                    
V 11  24718.535546  -8942.646887   4162.395535       .015392                    
P 12   9168.756210  22014.081541 -11720.391429    -89.370856                    
V 12 -11884.740391  -9438.996718 -26698.011203       .108235                    
P 13  -9037.234996 -14349.682779  20365.383306    121.310743                    
V 13   9238.393263 -24273.458412 -12906.647841       .037859                    
P 14  15854.661447  -4124.981870 -20806.757077      1.336175                    
V 14  -7730.840627  25414.652899 -10954.266178       .010828                    
P 16  11364.616735 -10108.256624  21850.840443    100.659006                    
V 16  18415.048932  20497.639815     25.338466       .039510                    
P 17 -16358.921797   3917.750207 -20535.789337     86.656557                    
V 17   6997.493352 -25154.986570 -10486.685952      -.013236                    
P 18  19733.090963  17005.806627  -5864.614864   -253.411689                    
V 18   2847.997661   7476.167752  30258.623887      -.002720                    
P 19   7883.258645 -25186.498749  -2430.218456     43.634058                    
V 19   3945.983800  -1919.546519  31540.882219       .042064                    
P 20 -11706.504487 -22044.399510  -9224.403690    -21.806291                    
V 20   9871.739032   6627.780549 -28605.973922      -.000252                    
P 21  21694.526935   6601.482096  14352.673266     64.648395                    
V 21 -17205.589351   5394.970573  23127.102288       .013708                    
P 22  20064.406991   6322.304346 -16063.792515    155.181573                    
V 22  11610.275807  17277.943335  21069.404704       .024734                    
P 23  -2166.913937 -22891.176245  13045.214210    142.487372                    
V 23   7128.989025 -15318.396130 -25726.229065       .010143                    
P 24 -17406.998509  13698.615362  15106.726711     59.202239                    
V 24 -18734.995200   1295.027068 -22773.073129       .029831                    
P 25  23419.650512 -11634.921711   5515.318917    404.593896                    
V 25   6968.890624    541.127233 -30545.355660      -.035383                    
P 26  -7440.362527  25117.542739  -1950.177281    -42.742770                    
V 26  -2835.051281   1134.634629  32685.106740      -.168846                    
P 27 -18713.797843  -7686.033220  17988.505543     82.574169                    
V 27  20301.563178  -7161.742960  18438.946690       .020411                    
P 28 -20897.410219 -10124.954232 -12904.648093     12.264265                    
V 28  -9467.901956 -13974.785105  25345.060684      -.008432                    
P 29  -9977.767751  24194.043512   3555.343068    254.375617                    
V 29   -816.134130  -4714.721680  32144.100832       .234021                    
P 30  18003.284251  19585.581009  -1290.944224     19.105341                    
V 30  -3178.046501   1340.120450 -31278.133822       .011649                    
P 31  25085.168190  -8161.813934   3478.752644    -23.923986                    
V 31   4676.648092   1758.806853 -31311.376542       .078900                    
EOF
